NORAD_CAT_ID,OBJECT_NAME,OBJECT_TYPE,EPOCH,MEAN_MOTION,ECCENTRICITY,INCLINATION,RA_OF_ASC_NODE,ARG_OF_PERICENTER,MEAN_ANOMALY,BSTAR,MEAN_MOTION_DOT,MEAN_MOTION_DDOT,TLE_LINE0,TLE_LINE1,TLE_LINE2,SEMIMAJOR_AXIS,PERIOD,APOGEE,PERIGEE,DECAYED
51121.0,STARLINK-3399,PAYLOAD,2023-10-20 21:05:09,15.08832882,0.000124,53.218,238.3519,94.4309,265.6825,5.0481e-05,5.15e-06,0.0,0 STARLINK-3399,1 51121U 22005T   23293.87858764  .00000515  00000-0  50481-4 0  9994,2 51121  53.2180 238.3519 0001240  94.4309 265.6825 15.08832882 97418,6917.902,95.438,540.625,538.909,0.0
51121.0,STARLINK-3399,PAYLOAD,2023-10-21 01:51:19,15.08836004,0.0001735,53.2177,237.4597,107.4136,252.7046,0.00019584,2.83e-05,0.0,0 STARLINK-3399,1 51121U 22005T   23294.07730810  .00002830  00000-0  19584-3 0  9998,2 51121  53.2177 237.4597 0001735 107.4136 252.7046 15.08836004 98550,6917.893,95.438,540.958,538.557,0.0
51121.0,STARLINK-3399,PAYLOAD,2023-10-21 03:26:42,15.08837446,0.0001562,53.2173,237.1629,103.0401,257.0766,0.00030568,4.58e-05,0.0,0 STARLINK-3399,1 51121U 22005T   23294.14354825  .00004580  00000-0  30568-3 0  9993,2 51121  53.2173 237.1629 0001562 103.0401 257.0766 15.08837446 97450,6917.888,95.438,540.834,538.673,0.0
51121.0,STARLINK-3399,PAYLOAD,2023-10-21 20:55:56,15.08853446,0.0001345,53.2167,233.893,99.5729,260.5415,0.00054984,8.477e-05,0.0,0 STARLINK-3399,1 51121U 22005T   23294.87218388  .00008477  00000-0  54984-3 0  9993,2 51121  53.2167 233.8930 0001345  99.5729 260.5415 15.08853446 97562,6917.839,95.437,540.635,538.774,0.0
51121.0,STARLINK-3399,PAYLOAD,2023-10-22 03:17:28,15.08867779,0.0001431,53.2168,232.7058,104.7813,255.3338,0.00089135,0.00013937,0.0,0 STARLINK-3399,1 51121U 22005T   23295.13713925  .00013937  00000-0  89135-3 0  9993,2 51121  53.2168 232.7058 0001431 104.7813 255.3338 15.08867779 98719,6917.795,95.436,540.65,538.671,0.0
51121.0,STARLINK-3399,PAYLOAD,2023-10-22 12:49:47,15.08863892,8.07e-05,53.2167,230.9195,63.8676,296.2399,0.00042906,6.552e-05,0.0,0 STARLINK-3399,1 51121U 22005T   23295.53457470  .00006552  00000-0  42906-3 0  9997,2 51121  53.2167 230.9195 0000807  63.8676 296.2399 15.08863892 97664,6917.807,95.436,540.231,539.114,0.0
51121.0,STARLINK-3399,PAYLOAD,2023-10-23 03:08:16,15.08824471,0.0001443,53.2166,228.2453,76.6905,283.4248,-2.6292e-05,-7.06e-06,0.0,0 STARLINK-3399,1 51121U 22005T   23296.13074940 -.00000706  00000-0 -26292-4 0  9999,2 51121  53.2166 228.2453 0001443  76.6905 283.4248 15.08824471 98868,6917.928,95.439,540.791,538.795,0.0
51121.0,STARLINK-3399,PAYLOAD,2023-10-23 12:40:36,15.08826697,0.0001468,53.2168,226.4611,76.6633,283.4522,0.00083688,0.00013051,0.0,0 STARLINK-3399,1 51121U 22005T   23296.52819589  .00013051  00000-0  83688-3 0  9994,2 51121  53.2168 226.4611 0001468  76.6633 283.4522 15.08826697 97812,6917.921,95.438,540.802,538.771,0.0
51121.0,STARLINK-3399,PAYLOAD,2023-10-24 02:59:04,15.08855246,0.0001418,53.2161,223.7849,75.3867,284.7282,0.0015561,0.00024574,0.0,0 STARLINK-3399,1 51121U 22005T   23297.12435564  .00024574  00000-0  15561-2 0  9994,2 51121  53.2161 223.7849 0001418  75.3867 284.7282 15.08855246 99011,6917.834,95.437,540.68,538.718,0.0
51121.0,STARLINK-3399,PAYLOAD,2023-10-24 12:31:22,15.08852526,0.0001401,53.216,222.0005,75.9893,284.1254,0.00074639,0.00011615,0.0,0 STARLINK-3399,1 51121U 22005T   23297.52179380  .00011615  00000-0  74639-3 0  9993,2 51121  53.2160 222.0005 0001401  75.9893 284.1254 15.08852526 99070,6917.842,95.437,540.676,538.738,0.0
51121.0,STARLINK-3399,PAYLOAD,2023-10-25 01:14:27,15.08859013,0.0001418,53.2159,219.6199,87.6638,272.4516,0.00070916,0.00011022,0.0,0 STARLINK-3399,1 51121U 22005T   23298.05171008  .00011022  00000-0  70916-3 0  9997,2 51121  53.2159 219.6199 0001418  87.6638 272.4516 15.08859013 99157,6917.822,95.436,540.668,538.706,0.0
51121.0,STARLINK-3399,PAYLOAD,2023-10-25 21:54:28,15.08848739,0.0001534,53.2176,215.7547,91.8112,268.3056,0.00023669,3.482e-05,0.0,0 STARLINK-3399,1 51121U 22005T   23298.91282945  .00003482  00000-0  23669-3 0  9999,2 51121  53.2176 215.7547 0001534  91.8112 268.3056 15.08848739 98170,6917.854,95.437,540.78,538.657,0.0
51121.0,STARLINK-3399,PAYLOAD,2023-10-26 01:05:14,15.08851873,0.0001497,53.2179,215.1596,93.5091,266.6072,0.00024667,3.641e-05,0.0,0 STARLINK-3399,1 51121U 22005T   23299.04530803  .00003641  00000-0  24667-3 0  9999,2 51121  53.2179 215.1596 0001497  93.5091 266.6072 15.08851873 99302,6917.844,95.437,540.745,538.673,0.0
51121.0,STARLINK-3399,PAYLOAD,2023-10-26 21:45:15,15.08848496,0.0001571,53.2168,211.2937,97.9924,262.1246,0.00014874,2.081e-05,0.0,0 STARLINK-3399,1 51121U 22005T   23299.90642660  .00002081  00000-0  14874-3 0  9995,2 51121  53.2168 211.2937 0001571  97.9924 262.1246 15.08848496 98324,6917.854,95.437,540.806,538.633,0.0
51121.0,STARLINK-3399,PAYLOAD,2023-10-27 04:06:43,15.08979159,0.0002337,53.217,210.1038,53.144,306.9766,0.0028063,0.00044831,0.0,0 STARLINK-3399,1 51121U 22005T   23300.17134148  .00044831  00000-0  28063-2 0  9997,2 51121  53.2170 210.1038 0002337  53.1440 306.9766 15.08979159 99477,6917.455,95.429,540.937,537.703,0.0
51121.0,STARLINK-3399,PAYLOAD,2023-10-27 08:52:57,15.08840793,0.0001702,53.2171,209.2123,62.2047,297.9117,1.8052e-05,-1e-08,0.0,0 STARLINK-3399,1 51121U 22005T   23300.37010834 -.00000001  00000-0  18052-4 0  9995,2 51121  53.2171 209.2123 0001702  62.2047 297.9117 15.08840793 99505,6917.878,95.438,540.92,538.566,0.0
51121.0,STARLINK-3399,PAYLOAD,2023-10-27 18:25:16,15.08832768,0.0001438,53.2179,207.4297,86.2555,273.8602,-8.9588e-05,-1.713e-05,0.0,0 STARLINK-3399,1 51121U 22005T   23300.76755186 -.00001713  00000-0 -89588-4 0  9998,2 51121  53.2179 207.4297 0001438  86.2555 273.8602 15.08832768 99562,6917.902,95.438,540.762,538.773,0.0
51121.0,STARLINK-3399,PAYLOAD,2023-10-27 21:36:02,15.08836444,0.0001357,53.2177,206.8364,83.8566,276.258,3.4245e-07,-2.82e-06,0.0,0 STARLINK-3399,1 51121U 22005T   23300.90003055 -.00000282  00000-0  34245-6 0  9996,2 51121  53.2177 206.8364 0001357  83.8566 276.2580 15.08836444 98479,6917.891,95.438,540.695,538.818,0.0
51121.0,STARLINK-3399,PAYLOAD,2023-10-28 00:46:48,15.08857501,0.0001406,53.2175,206.2391,104.9072,255.2076,0.00038805,5.896e-05,0.0,0 STARLINK-3399,1 51121U 22005T   23301.03250188  .00005896  00000-0  38805-3 0  9990,2 51121  53.2175 206.2391 0001406 104.9072 255.2076 15.08857501 99603,6917.827,95.436,540.665,538.719,0.0
51121.0,STARLINK-3399,PAYLOAD,2023-10-28 10:19:07,15.08837095,0.0001438,53.2177,204.4547,100.4299,259.6855,1.1515e-05,-1.05e-06,0.0,0 STARLINK-3399,1 51121U 22005T   23301.42994995 -.00000105  00000-0  11515-4 0  9993,2 51121  53.2177 204.4547 0001438 100.4299 259.6855 15.08837095 99660,6917.889,95.438,540.749,538.759,0.0
51121.0,STARLINK-3399,PAYLOAD,2023-10-28 18:16:03,15.08829444,0.0001539,53.2178,202.9689,96.5224,263.5943,-0.00017311,-3.041e-05,0.0,0 STARLINK-3399,1 51121U 22005T   23301.76115551 -.00003041  00000-0 -17311-3 0  9995,2 51121  53.2178 202.9689 0001539  96.5224 263.5943 15.08829444 99713,6917.913,95.438,540.842,538.713,0.0
51121.0,STARLINK-3399,PAYLOAD,2023-10-28 21:26:49,15.08834449,0.0001391,53.2171,202.3726,96.2771,263.838,-5.4674e-05,-1.158e-05,0.0,0 STARLINK-3399,1 51121U 22005T   23301.89363415 -.00001158  00000-0 -54674-4 0  9994,2 51121  53.2171 202.3726 0001391  96.2771 263.8380 15.08834449 98620,6917.897,95.438,540.725,538.8,0.0
51121.0,STARLINK-3399,PAYLOAD,2023-10-29 02:12:58,15.08849818,0.000132,53.217,201.4811,92.1102,268.0041,0.00028065,4.183e-05,0.0,0 STARLINK-3399,1 51121U 22005T   23302.09234871  .00004183  00000-0  28065-3 0  9993,2 51121  53.2170 201.4811 0001320  92.1102 268.0041 15.08849818 99762,6917.85,95.437,540.629,538.802,0.0
51121.0,STARLINK-3399,PAYLOAD,2023-10-29 10:09:54,15.08845018,0.0001295,53.2169,199.9938,84.7429,275.3711,0.00023614,3.473e-05,0.0,0 STARLINK-3399,1 51121U 22005T   23302.42355076  .00003473  00000-0  23614-3 0  9997,2 51121  53.2169 199.9938 0001295  84.7429 275.3711 15.08845018 99810,6917.865,95.437,540.626,538.834,0.0
51121.0,STARLINK-3399,PAYLOAD,2023-10-29 14:56:07,15.08769695,0.0001702,53.217,199.1021,94.3074,265.8112,-0.00084176,-0.00013634,0.0,0 STARLINK-3399,1 51121U 22005T   23302.62230804 -.00013634  00000-0 -84176-3 0  9992,2 51121  53.2170 199.1021 0001702  94.3074 265.8112 15.08769695 99841,6918.095,95.442,541.138,538.783,0.0
51121.0,STARLINK-3399,PAYLOAD,2023-10-29 22:53:00,15.08847627,0.0001458,53.2167,197.6153,77.6212,282.4943,0.00032904,4.954e-05,0.0,0 STARLINK-3399,1 51121U 22005T   23302.95347333  .00004954  00000-0  32904-3 0  9999,2 51121  53.2167 197.6153 0001458  77.6212 282.4943 15.08847627 98783,6917.857,95.437,540.731,538.713,0.0
51121.0,STARLINK-3399,PAYLOAD,2023-10-30 05:14:32,15.08853633,0.0001524,53.2161,196.4273,90.7585,269.3582,0.00040883,6.227e-05,0.0,0 STARLINK-3399,1 51121U 22005T   23303.21843065  .00006227  00000-0  40883-3 0  9992,2 51121  53.2161 196.4273 0001524  90.7585 269.3582 15.08853633 99935,6917.839,95.437,540.758,538.649,0.0
51121.0,STARLINK-3399,PAYLOAD,2023-10-30 10:00:42,15.08828228,0.0001489,53.2159,195.5342,96.9116,263.2046,-0.00011611,-2.135e-05,0.0,0 STARLINK-3399,1 51121U 22005T   23303.41716078 -.00002135  00000-0 -11611-3 0  9990,2 51121  53.2159 195.5342 0001489  96.9116 263.2046 15.08828228 99960,6917.916,95.438,540.811,538.751,0.0
51121.0,STARLINK-3399,PAYLOAD,2023-10-30 21:08:24,15.08840143,0.0001568,53.2152,193.4529,94.0672,266.0499,0.00017486,2.496e-05,0.0,0 STARLINK-3399,1 51121U 22005T   23303.88083878  .00002496  00000-0  17486-3 0  9990,2 51121  53.2152 193.4529 0001568  94.0672 266.0499 15.08840143100035,6917.88,95.438,540.83,538.66,0.0
51121.0,STARLINK-3399,PAYLOAD,2023-10-31 09:51:29,15.08834144,0.000146,53.2152,191.0738,98.0965,262.0192,0.00016591,2.353e-05,0.0,0 STARLINK-3399,1 51121U 22005T   23304.41076173  .00002353  00000-0  16591-3 0  9998,2 51121  53.2152 191.0738 0001460  98.0965 262.0192 15.08834144 99005,6917.898,95.438,540.773,538.753,0.0
